SAUDISAT 1C (SO-50)     
1 27607U 02058C   26167.61583826  .00000824  00000+0  11462-3 0  9998
2 27607  64.5510 130.7531 0075275 262.5800  96.6748 14.83045885264372
SAUDISAT 2              
1 28371U 04025F   26167.54813434  .00000196  00000+0  54949-4 0  9996
2 28371  98.5508 167.5135 0023615 300.3178  59.5683 14.56683601165654
SAUDISAT 3              
1 31118U 07012B   26167.85067485  .00000213  00000+0  42656-4 0  9991
2 31118  98.1456 118.2511 0013617 224.9729 135.0375 14.71425499 27695
PISAT                   
1 41784U 16059B   26167.87154970  .00000696  00000+0  12619-3 0  9990
2 41784  97.8179 168.3379 0028357 203.7910 156.1987 14.68983006519693
FLYING LAPTOP           
1 42831U 17042G   26167.85223575  .00003612  00000+0  28529-3 0  9991
2 42831  97.4683 323.3978 0019517 122.5784 237.7328 15.01145830486406
SALSAT                  
1 46495U 20068K   26167.75305926  .00006424  00000+0  22536-3 0  9999
2 46495  97.8846 170.7912 0008036 309.8779  50.1753 15.29794360315296
